[{"OBJECT_NAME":"STARLINK-3553","OBJECT_ID":"2022-022Q","EPOCH":"2026-03-09T02:24:12.753504","MEAN_MOTION":15.08840706,"ECCENTRICITY":0.00013372,"INCLINATION":53.2194,"RA_OF_ASC_NODE":11.6232,"ARG_OF_PERICENTER":87.3208,"MEAN_ANOMALY":272.7937,"EPHEMERIS_TYPE":0,"CLASSIFICATION_TYPE":"U","NORAD_CAT_ID":51866,"ELEMENT_SET_NO":999,"REV_AT_EPOCH":22302,"BSTAR":-2.2099268e-5,"MEAN_MOTION_DOT":-6.4e-6,"MEAN_MOTION_DDOT":0},{"OBJECT_NAME":"DMSP 5D-2 F11 DEB","OBJECT_ID":"1991-082AJ","EPOCH":"2026-03-09T06:39:32.486112","MEAN_MOTION":15.08629375,"ECCENTRICITY":0.00070318,"INCLINATION":98.5181,"RA_OF_ASC_NODE":189.4283,"ARG_OF_PERICENTER":237.8685,"MEAN_ANOMALY":152.6153,"EPHEMERIS_TYPE":0,"CLASSIFICATION_TYPE":"U","NORAD_CAT_ID":28321,"ELEMENT_SET_NO":999,"REV_AT_EPOCH":14288,"BSTAR":0.0082823802,"MEAN_MOTION_DOT":0.00131946,"MEAN_MOTION_DDOT":0}]
